BEIDOU 3 (C01)          
1 36287U 10001A   22157.09044825 -.00000270  00000+0  00000+0 0  9995
2 36287   1.8647  47.3188 0003961  16.7936   3.3841  1.00271161 45407
BEIDOU 5 (C06)          
1 36828U 10036A   22156.74136813 -.00000051  00000+0  00000+0 0  9991
2 36828  54.1912 176.3348 0027956 191.8514 257.8685  1.00249492 43460
BEIDOU 6 (C04)          
1 37210U 10057A   22156.69793575 -.00000101  00000+0  00000+0 0  9994
2 37210   0.8328  46.3354 0002522 134.5679 124.4830  1.00271815 42516
BEIDOU 7 (C07)          
1 37256U 10068A   22156.70803549 -.00000197  00000+0  00000+0 0  9996
2 37256  50.2330 289.7878 0021185 183.7152 141.5370  1.00253260 42029
BEIDOU 8 (C08)          
1 37384U 11013A   22156.65980581 -.00000190  00000+0  00000+0 0  9998
2 37384  60.2747  54.3757 0017717 187.0565 356.9603  1.00259185 40905
BEIDOU 9 (C09)          
1 37763U 11038A   22156.76230164 -.00000016  00000+0  00000+0 0  9990
2 37763  54.4750 178.8258 0097927 227.9799 216.9136  1.00281745 39885
BEIDOU 10 (C10)         
1 37948U 11073A   22157.26736243 -.00000142  00000+0  00000+0 0  9999
2 37948  50.3487 289.4167 0079905 216.7665 297.6133  1.00255796 38647
BEIDOU 11 (C05)         
1 38091U 12008A   22156.88591071  .00000068  00000+0  00000+0 0  9999
2 38091   1.5390  67.3736 0014731 336.5604 227.9908  1.00269200 37711
BEIDOU 12 (C11)         
1 38250U 12018A   22156.62834091 -.00000073  00000+0  00000+0 0  9998
2 38250  56.6992 353.9496 0020100 254.4922 307.9196  1.86234314 68862
BEIDOU 13 (C12)         
1 38251U 12018B   22155.71511955 -.00000078  00000+0  00000+0 0  9994
2 38251  56.6161 353.3041 0010941 256.6114  97.7536  1.86234339 68847
BEIDOU 15 (C14)         
1 38775U 12050B   22156.74058155  .00000040  00000+0  00000+0 0  9991
2 38775  55.3943 112.0785 0015533 321.8297 196.3747  1.86231329 66244
BEIDOU 16 (C02)         
1 38953U 12059A   22156.87480155 -.00000163  00000+0  00000+0 0  9998
2 38953   1.9614  84.3423 0012156 301.1805 267.6100  1.00268209 35286
BEIDOU 17 (C31)         
1 40549U 15019A   22156.89972128 -.00000150  00000+0  00000+0 0  9995
2 40549  51.9060 312.8877 0036231 192.7585 163.5837  1.00299338 26313
BEIDOU 18 (C57)         
1 40748U 15037A   22156.91145657 -.00000072  00000+0  00000+0 0  9991
2 40748  55.8657 352.1395 0005300  36.8747 309.0039  1.86233192 46696
BEIDOU 19 (C58)         
1 40749U 15037B   22157.02939096 -.00000072  00000+0  00000+0 0  9993
2 40749  55.8719 352.1240 0004481 358.1932 201.3335  1.86232136 46690
BEIDOU 20 (C18)         
1 40938U 15053A   22156.82650115 -.00000130  00000+0  00000+0 0  9995
2 40938  51.5193 276.0090 0044509 195.7627 173.1514  1.00295163 24592
BEIDOU IGSO-6 (C13)     
1 41434U 16021A   22156.70119001 -.00000167  00000+0  00000+0 0  9994
2 41434  58.0843  52.9565 0044072 218.9878 330.0410  1.00286057 22710
BEIDOU-2 G7 (C03)       
1 41586U 16037A   22156.83452029 -.00000344  00000+0  00000+0 0  9990
2 41586   1.9537  69.7209 0008405   2.2190 233.2099  1.00276609 22020
BEIDOU-3 M1 (C19)       
1 43001U 17069A   22156.38646922  .00000038  00000+0  00000+0 0  9996
2 43001  55.5470 112.0900 0012303 293.9681 143.0725  1.86231640 31171
BEIDOU-3 M2 (C20)       
1 43002U 17069B   22157.29973796  .00000043  00000+0  00000+0 0  9996
2 43002  55.5431 112.0937 0010539 311.5348  60.8578  1.86231248 31182
BEIDOU-3 M3 (C27)       
1 43107U 18003A   22157.17226471 -.00000073  00000+0  00000+0 0  9993
2 43107  55.3189 353.0516 0005775  59.3287  33.7172  1.86232786 29949
BEIDOU-3 M4 (C28)       
1 43108U 18003B   22156.68184120 -.00000075  00000+0  00000+0 0  9995
2 43108  55.3119 353.0572 0001627 260.6896 267.5000  1.86230864 29931
BEIDOU-3 M5 (C21)       
1 43207U 18018A   22156.33921066  .00000038  00000+0  00000+0 0  9999
2 43207  55.5074 112.2057 0007764 328.6813  31.2418  1.86231520 29319
BEIDOU-3 M6 (C22)       
1 43208U 18018B   22156.40583328  .00000039  00000+0  00000+0 0  9994
2 43208  55.5051 112.2077 0010339 303.8267  56.0449  1.86231558 29317
BEIDOU-3 M7 (C29)       
1 43245U 18029A   22156.34627500 -.00000076  00000+0  00000+0 0  9993
2 43245  55.2345 350.8502 0001410  58.2248 111.4336  1.86232527 28467
BEIDOU-3 M8 (C30)       
1 43246U 18029B   22156.54771572 -.00000075  00000+0  10000-3 0  9999
2 43246  55.2293 350.8732 0004732  13.0475 338.1883  1.86232739 28455
BEIDOU IGSO-7 (C16)     
1 43539U 18057A   22156.73754637 -.00000061  00000+0  00000+0 0  9999
2 43539  55.0738 175.8078 0049259 227.3514 227.2722  1.00261724 14397
BEIDOU-3 M9 (C23)       
1 43581U 18062A   22157.24156038  .00000013  00000+0  00000+0 0  9996
2 43581  54.2743 232.4667 0004424 264.6893  42.7373  1.86232084 26211
BEIDOU-3 M10 (C24)      
1 43582U 18062B   22156.74525354  .00000012  00000+0  00000+0 0  9991
2 43582  54.2780 232.4755 0004177 359.3383  67.0912  1.86232074 26210
BEIDOU-3 M11 (C25)      
1 43602U 18067A   22156.61592576  .00000013  00000+0  00000+0 0  9996
2 43602  54.3608 231.0923 0006670   7.3687  13.7987  1.86231693 25701
BEIDOU-3 M12 (C26)      
1 43603U 18067B   22156.66453058  .00000014  00000+0  00000+0 0  9994
2 43603  54.3575 231.0581 0003886 352.7282 331.4046  1.86231675 25716
BEIDOU-3 M13 (C32)      
1 43622U 18072A   22155.86716162  .00000034  00000+0  00000+0 0  9992
2 43622  55.4728 111.7769 0008743 291.5557 247.2793  1.86231631 25213
BEIDOU-3 M14 (C33)      
1 43623U 18072B   22155.78559170  .00000033  00000+0  00000+0 0  9997
2 43623  55.4745 111.7712 0006821 310.3232 264.0611  1.86231660 25214
BEIDOU-3 M15 (C34)      
1 43647U 18078A   22157.02827525 -.00000070  00000+0  10556+2 0  9991
2 43647  55.1254 350.9878 0006905  14.2173 208.8769  1.86233310 24740
BEIDOU-3 M16 (C35)      
1 43648U 18078B   22156.85369853 -.00000073  00000+0  00000+0 0  9991
2 43648  55.1233 350.9989 0005223  28.8321 345.0211  1.86232261 24761
BEIDOU-3 G1 (C59)       
1 43683U 18085A   22157.33971279 -.00000265  00000+0  00000+0 0  9996
2 43683   0.8794 167.9783 0002900 334.2647  14.8193  1.00275755 13298
BEIDOU-3 M17 (C36)      
1 43706U 18093A   22155.91061469  .00000012  00000+0  00000+0 0  9993
2 43706  54.3604 232.3992 0010050 271.0535  88.9055  1.86232043 24104
BEIDOU-3 M18 (C37)      
1 43707U 18093B   22155.26108454  .00000013  00000+0  00000+0 0  9999
2 43707  54.3618 232.4114 0007636 298.4269  77.2506  1.86232160 24089
BEIDOU-3 IGSO-1 (C38)   
1 44204U 19023A   22156.61767325 -.00000224  00000+0  00000+0 0  9999
2 44204  56.5421  53.0965 0019001 200.8574 340.5126  1.00261524 11592
BEIDOU-2 G8             
1 44231U 19027A   22156.91001303 -.00000238  00000+0  00000+0 0  9998
2 44231   0.8349  75.7543 0004509 118.3459 172.2445  1.00267252 11316
BEIDOU-3 IGSO-2 (C39)   
1 44337U 19035A   22155.75993084 -.00000070  00000+0  00000+0 0  9995
2 44337  55.1158 171.8369 0023315 198.7081 273.6908  1.00256545 10926
BEIDOU-3 M23 (C45)      
1 44542U 19061A   22155.84644842  .00000012  00000+0  00000+0 0  9992
2 44542  54.5865 232.5406 0007632 329.9589  30.0714  1.86231317 18353
BEIDOU-3 M24 (C46)      
1 44543U 19061B   22156.52446300  .00000012  00000+0  00000+0 0  9998
2 44543  54.5847 232.4865 0004895 318.6902  47.2086  1.86231623 18367
BEIDOU-3 IGSO-3         
1 44709U 19073A   22157.28868740 -.00000186  00000+0  00000+0 0  9998
2 44709  57.2862 296.4986 0022984 174.1531   6.0434  1.00260273  9699
BEIDOU-3 M21            
1 44793U 19078A   22157.04980216 -.00000073  00000+0  10000-3 0  9993
2 44793  54.9754 351.0082 0007068  19.9546 171.4672  1.86232137 17231
BEIDOU-3 M22            
1 44794U 19078B   22157.17133127 -.00000072  00000+0  00000+0 0  9993
2 44794  54.9528 350.9948 0004999  20.4272 164.1234  1.86232721 17235
BEIDOU-3 M19            
1 44864U 19090A   22156.87549468  .00000041  00000+0  00000+0 0  9995
2 44864  55.4085 111.9553 0018694 273.8140 266.8565  1.86231835 16814
BEIDOU-3 M20            
1 44865U 19090B   22156.61648580  .00000039  00000+0  00000+0 0  9990
2 44865  55.4108 111.9946 0017162 286.4920 170.3952  1.86231765 16789
BEIDOU-3 G2             
1 45344U 20017A   22157.18422817 -.00000132  00000+0  00000+0 0  9995
2 45344   2.0743 351.4865 0004532 107.6055 301.8740  1.00272510  8513
BEIDOU-3 G3             
1 45807U 20040A   22156.83452029 -.00000343  00000+0  00000+0 0  9998
2 45807   1.4686 302.9517 0005780 330.0772  32.0836  1.00265873  7304
